SL-16 R/B               
1 25407U 98045B   26093.50659289  .00000044  00000+0  46437-4 0  9993
2 25407  71.0091 129.3870 0008204 331.4959  28.5714 14.16193398430612
ISS (ZARYA)             
1 25544U 98067A   26093.87567842  .00012431  00000+0  23534-3 0  9997
2 25544  51.6327 307.8415 0006253 268.9169  91.1103 15.48754008560234
CZ-4B R/B               
1 25732U 99025C   26093.71955705  .00000092  00000+0  65485-4 0  9995
2 25732  98.6573 137.4023 0035970 272.9155 196.5347 14.18270621391712
OKEAN-O                 
1 25860U 99039A   26093.72877823  .00001188  00000+0  16252-3 0  9991
2 25860  97.9390 153.3592 0000923 102.3809 257.7506 14.80378901438092
SL-16 R/B               
1 25861U 99039B   26093.68513277  .00001038  00000+0  13818-3 0  9996
2 25861  97.9913 152.7378 0015011 171.1642 188.9837 14.81768642440565
DELTA 2 R/B             
1 25876U 99041E   26093.71398056  .00001128  00000+0  22067-3 0  9991
2 25876  51.7611 201.3138 0502623  62.2245 302.8713 14.11897918366567
HELIOS 1B               
1 25977U 99064A   26093.73332833  .00003511  00000+0  39074-3 0  9995
2 25977  98.1670 356.7103 0001529  44.4908 315.6430 14.87802445688988
TERRA                   
1 25994U 99068A   26093.85447931  .00000802  00000+0  17236-3 0  9993
2 25994  97.9540 146.3212 0003667  99.7878 347.2020 14.61043899398759
SL-16 R/B               
1 26070U 00006B   26093.88173714  .00000135  00000+0  92955-4 0  9992
2 26070  71.0038  44.8632 0015264 150.2868 209.9125 14.15830989352120
TITAN 4B R/B            
1 26474U 00047B   26093.87258866  .00006619  00000+0  40885-3 0  9993
2 26474  67.9902 329.6875 0040273   5.8963 354.2652 15.09803869396717
ENVISAT                 
1 27386U 02009A   26093.84116375  .00000221  00000+0  85271-4 0  9993
2 27386  98.3770  46.8462 0001185  82.1438 284.1270 14.39046390262792
IDEFIX & ARIANE 42P R/B 
1 27422U 02021B   26093.80673504  .00000491  00000+0  20272-3 0  9994
2 27422  98.5899  32.1172 0012849 111.1865 249.0692 14.31044630247618
